[{"OBJECT_NAME":"LEMUR-2-KATIE","OBJECT_ID":"2026-004AA","EPOCH":"2026-03-09T22:40:01.327584","MEAN_MOTION":14.89160195,"ECCENTRICITY":0.00048797,"INCLINATION":97.8049,"RA_OF_ASC_NODE":69.2556,"ARG_OF_PERICENTER":71.866,"MEAN_ANOMALY":288.3089,"EPHEMERIS_TYPE":0,"CLASSIFICATION_TYPE":"U","NORAD_CAT_ID":67387,"ELEMENT_SET_NO":999,"REV_AT_EPOCH":853,"BSTAR":0.00079584611,"MEAN_MOTION_DOT":7.468e-5,"MEAN_MOTION_DDOT":0},{"OBJECT_NAME":"DELTA 1 DEB","OBJECT_ID":"1975-004AN","EPOCH":"2026-03-09T23:12:54.859104","MEAN_MOTION":14.86279271,"ECCENTRICITY":0.00227404,"INCLINATION":98.3675,"RA_OF_ASC_NODE":250.34,"ARG_OF_PERICENTER":236.8085,"MEAN_ANOMALY":123.0948,"EPHEMERIS_TYPE":0,"CLASSIFICATION_TYPE":"U","NORAD_CAT_ID":8956,"ELEMENT_SET_NO":999,"REV_AT_EPOCH":64723,"BSTAR":0.00043206902,"MEAN_MOTION_DOT":3.758e-5,"MEAN_MOTION_DDOT":0}]
